[{"OBJECT_NAME":"ONEWEB-0644","OBJECT_ID":"2023-029N","EPOCH":"2026-03-09T18:33:51.933600","MEAN_MOTION":13.19725577,"ECCENTRICITY":0.00019503,"INCLINATION":87.9221,"RA_OF_ASC_NODE":324.7943,"ARG_OF_PERICENTER":85.6524,"MEAN_ANOMALY":274.4832,"EPHEMERIS_TYPE":0,"CLASSIFICATION_TYPE":"U","NORAD_CAT_ID":55808,"ELEMENT_SET_NO":999,"REV_AT_EPOCH":14579,"BSTAR":-0.00032679506,"MEAN_MOTION_DOT":-1.18e-6,"MEAN_MOTION_DDOT":0},{"OBJECT_NAME":"THORAD AGENA D DEB","OBJECT_ID":"1970-025X","EPOCH":"2026-03-09T09:57:17.080128","MEAN_MOTION":13.33098389,"ECCENTRICITY":0.01124783,"INCLINATION":99.8894,"RA_OF_ASC_NODE":139.1894,"ARG_OF_PERICENTER":314.0154,"MEAN_ANOMALY":105.243,"EPHEMERIS_TYPE":0,"CLASSIFICATION_TYPE":"U","NORAD_CAT_ID":4639,"ELEMENT_SET_NO":999,"REV_AT_EPOCH":71598,"BSTAR":0.00029614951,"MEAN_MOTION_DOT":1.07e-6,"MEAN_MOTION_DDOT":0}]
